ONEWEB-0501             
1 54119U 22138G   26045.26714588  .00000170  00000+0  39314-3 0  9994
2 54119  87.9250 329.4377 0001424  83.5402 276.5893 13.19724292160592
ONEWEB-0502             
1 54120U 22138H   26045.25292163  .00000037  00000+0  60966-4 0  9995
2 54120  87.9264 329.4229 0001508  77.5299 282.6003 13.19724304160613
ONEWEB-0503             
1 54121U 22138J   26045.24186623  .00000031  00000+0  44253-4 0  9993
2 54121  87.9262 329.4291 0001780  69.7998 290.3327 13.19724009160608
ONEWEB-0504             
1 54122U 22138K   26045.22923889  .00000113  00000+0  24958-3 0  9995
2 54122  87.9249 329.4444 0001516  75.8482 284.2819 13.19724154160617
ONEWEB-0505             
1 54123U 22138L   26045.22606857  .00000152  00000+0  34632-3 0  9992
2 54123  87.9260 329.4392 0001288  79.4782 280.6495 13.19723157160591
ONEWEB-0506             
1 54124U 22138M   26045.27663001  .00000114  00000+0  25162-3 0  9998
2 54124  87.9259 329.4266 0001480  80.6098 279.5202 13.19724889160594
ONEWEB-0507             
1 54125U 22138N   26045.22133984  .00000135  00000+0  30398-3 0  9996
2 54125  87.9245 329.4622 0001605  82.4246 277.7069 13.19724752160635
ONEWEB-0508             
1 54126U 22138P   26045.21818709  .00000150  00000+0  34121-3 0  9996
2 54126  87.9249 329.4609 0001444  90.8526 269.2772 13.19726940160616
ONEWEB-0509             
1 54127U 22138Q   26045.26872117  .00000086  00000+0  18178-3 0  9997
2 54127  87.9260 329.4275 0001654  79.4035 280.7284 13.19725555160594
ONEWEB-0510             
1 54128U 22138R   26045.25397192  .00000078  00000+0  16029-3 0  9996
2 54128  87.9210 298.9738 0002109  75.2858 284.8509 13.20770103163057
ONEWEB-0511             
1 54129U 22138S   26045.26556445  .00000162  00000+0  37177-3 0  9997
2 54129  87.9262 329.4325 0001745  68.2277 291.9041 13.19724480160624
ONEWEB-0512             
1 54130U 22138T   26045.25767748  .00000065  00000+0  12889-3 0  9993
2 54130  87.9254 329.4504 0001375  79.0478 281.0809 13.19726699160590
ONEWEB-0513             
1 54131U 22138U   26045.23769353  .00000047  00000+0  85502-4 0  9999
2 54131  87.9263 329.4116 0000973  58.1907 301.9320 13.20261163160499
ONEWEB-0514             
1 54132U 22138V   26045.27346673  .00000086  00000+0  18330-3 0  9997
2 54132  87.9254 329.4358 0001902  74.7207 285.4136 13.19724838160614
ONEWEB-0515             
1 54133U 22138W   26045.24134721  .00000012  00000+0 -24776-5 0  9997
2 54133  87.9211 298.9651 0002477  91.2331 268.9086 13.20771324163071
ONEWEB-0516             
1 54134U 22138X   26045.24818424  .00000039  00000+0  64272-4 0  9999
2 54134  87.9250 329.4541 0001751  81.8642 278.2690 13.19723712160615
ONEWEB-0517             
1 54135U 22138Y   26045.22765930  .00000100  00000+0  21643-3 0  9994
2 54135  87.9254 329.4459 0001788  70.0047 290.1279 13.19724463160617
