[{"OBJECT_NAME":"ONEWEB-0501","OBJECT_ID":"2022-138G","EPOCH":"2026-02-14T06:24:41.404032","MEAN_MOTION":13.19724292,"ECCENTRICITY":0.00014247,"INCLINATION":87.925,"RA_OF_ASC_NODE":329.4377,"ARG_OF_PERICENTER":83.5402,"MEAN_ANOMALY":276.5893,"EPHEMERIS_TYPE":0,"CLASSIFICATION_TYPE":"U","NORAD_CAT_ID":54119,"ELEMENT_SET_NO":999,"REV_AT_EPOCH":16059,"BSTAR":0.00039313698,"MEAN_MOTION_DOT":1.7e-6,"MEAN_MOTION_DDOT":0},{"OBJECT_NAME":"ONEWEB-0502","OBJECT_ID":"2022-138H","EPOCH":"2026-02-14T06:04:12.428832","MEAN_MOTION":13.19724304,"ECCENTRICITY":0.00015087,"INCLINATION":87.9264,"RA_OF_ASC_NODE":329.4229,"ARG_OF_PERICENTER":77.5299,"MEAN_ANOMALY":282.6003,"EPHEMERIS_TYPE":0,"CLASSIFICATION_TYPE":"U","NORAD_CAT_ID":54120,"ELEMENT_SET_NO":999,"REV_AT_EPOCH":16061,"BSTAR":6.096568e-5,"MEAN_MOTION_DOT":3.7e-7,"MEAN_MOTION_DDOT":0},{"OBJECT_NAME":"ONEWEB-0503","OBJECT_ID":"2022-138J","EPOCH":"2026-02-14T05:48:17.242272","MEAN_MOTION":13.19724009,"ECCENTRICITY":0.00017808,"INCLINATION":87.9262,"RA_OF_ASC_NODE":329.4291,"ARG_OF_PERICENTER":69.7998,"MEAN_ANOMALY":290.3327,"EPHEMERIS_TYPE":0,"CLASSIFICATION_TYPE":"U","NORAD_CAT_ID":54121,"ELEMENT_SET_NO":999,"REV_AT_EPOCH":16060,"BSTAR":4.4252683e-5,"MEAN_MOTION_DOT":3.1e-7,"MEAN_MOTION_DDOT":0},{"OBJECT_NAME":"ONEWEB-0504","OBJECT_ID":"2022-138K","EPOCH":"2026-02-14T05:30:06.240096","MEAN_MOTION":13.19724154,"ECCENTRICITY":0.00015167,"INCLINATION":87.9249,"RA_OF_ASC_NODE":329.4444,"ARG_OF_PERICENTER":75.8482,"MEAN_ANOMALY":284.2819,"EPHEMERIS_TYPE":0,"CLASSIFICATION_TYPE":"U","NORAD_CAT_ID":54122,"ELEMENT_SET_NO":999,"REV_AT_EPOCH":16061,"BSTAR":0.00024957793,"MEAN_MOTION_DOT":1.13e-6,"MEAN_MOTION_DDOT":0},{"OBJECT_NAME":"ONEWEB-0505","OBJECT_ID":"2022-138L","EPOCH":"2026-02-14T05:25:32.324448","MEAN_MOTION":13.19723157,"ECCENTRICITY":0.00012883,"INCLINATION":87.926,"RA_OF_ASC_NODE":329.4392,"ARG_OF_PERICENTER":79.4782,"MEAN_ANOMALY":280.6495,"EPHEMERIS_TYPE":0,"CLASSIFICATION_TYPE":"U","NORAD_CAT_ID":54123,"ELEMENT_SET_NO":999,"REV_AT_EPOCH":16059,"BSTAR":0.00034632454,"MEAN_MOTION_DOT":1.52e-6,"MEAN_MOTION_DDOT":0},{"OBJECT_NAME":"ONEWEB-0506","OBJECT_ID":"2022-138M","EPOCH":"2026-02-14T06:38:20.832864","MEAN_MOTION":13.19724889,"ECCENTRICITY":0.00014808,"INCLINATION":87.9259,"RA_OF_ASC_NODE":329.4266,"ARG_OF_PERICENTER":80.6098,"MEAN_ANOMALY":279.5202,"EPHEMERIS_TYPE":0,"CLASSIFICATION_TYPE":"U","NORAD_CAT_ID":54124,"ELEMENT_SET_NO":999,"REV_AT_EPOCH":16059,"BSTAR":0.00025161521,"MEAN_MOTION_DOT":1.14e-6,"MEAN_MOTION_DDOT":0},{"OBJECT_NAME":"ONEWEB-0507","OBJECT_ID":"2022-138N","EPOCH":"2026-02-14T05:18:43.762176","MEAN_MOTION":13.19724752,"ECCENTRICITY":0.0001605,"INCLINATION":87.9245,"RA_OF_ASC_NODE":329.4622,"ARG_OF_PERICENTER":82.4246,"MEAN_ANOMALY":277.7069,"EPHEMERIS_TYPE":0,"CLASSIFICATION_TYPE":"U","NORAD_CAT_ID":54125,"ELEMENT_SET_NO":999,"REV_AT_EPOCH":16063,"BSTAR":0.00030398223,"MEAN_MOTION_DOT":1.35e-6,"MEAN_MOTION_DDOT":0},{"OBJECT_NAME":"ONEWEB-0508","OBJECT_ID":"2022-138P","EPOCH":"2026-02-14T05:14:11.364576","MEAN_MOTION":13.1972694,"ECCENTRICITY":0.00014443,"INCLINATION":87.9249,"RA_OF_ASC_NODE":329.4609,"ARG_OF_PERICENTER":90.8526,"MEAN_ANOMALY":269.2772,"EPHEMERIS_TYPE":0,"CLASSIFICATION_TYPE":"U","NORAD_CAT_ID":54126,"ELEMENT_SET_NO":999,"REV_AT_EPOCH":16061,"BSTAR":0.00034120648,"MEAN_MOTION_DOT":1.5e-6,"MEAN_MOTION_DDOT":0},{"OBJECT_NAME":"ONEWEB-0509","OBJECT_ID":"2022-138Q","EPOCH":"2026-02-14T06:26:57.509088","MEAN_MOTION":13.19725555,"ECCENTRICITY":0.00016544,"INCLINATION":87.926,"RA_OF_ASC_NODE":329.4275,"ARG_OF_PERICENTER":79.4035,"MEAN_ANOMALY":280.7284,"EPHEMERIS_TYPE":0,"CLASSIFICATION_TYPE":"U","NORAD_CAT_ID":54127,"ELEMENT_SET_NO":999,"REV_AT_EPOCH":16059,"BSTAR":0.00018178299,"MEAN_MOTION_DOT":8.6e-7,"MEAN_MOTION_DDOT":0},{"OBJECT_NAME":"ONEWEB-0510","OBJECT_ID":"2022-138R","EPOCH":"2026-02-14T06:05:43.173888","MEAN_MOTION":13.20770103,"ECCENTRICITY":0.00021095,"INCLINATION":87.921,"RA_OF_ASC_NODE":298.9738,"ARG_OF_PERICENTER":75.2858,"MEAN_ANOMALY":284.8509,"EPHEMERIS_TYPE":0,"CLASSIFICATION_TYPE":"U","NORAD_CAT_ID":54128,"ELEMENT_SET_NO":999,"REV_AT_EPOCH":16305,"BSTAR":0.00016028801,"MEAN_MOTION_DOT":7.8e-7,"MEAN_MOTION_DDOT":0},{"OBJECT_NAME":"ONEWEB-0511","OBJECT_ID":"2022-138S","EPOCH":"2026-02-14T06:22:24.768480","MEAN_MOTION":13.1972448,"ECCENTRICITY":0.00017451,"INCLINATION":87.9262,"RA_OF_ASC_NODE":329.4325,"ARG_OF_PERICENTER":68.2277,"MEAN_ANOMALY":291.9041,"EPHEMERIS_TYPE":0,"CLASSIFICATION_TYPE":"U","NORAD_CAT_ID":54129,"ELEMENT_SET_NO":999,"REV_AT_EPOCH":16062,"BSTAR":0.00037177313,"MEAN_MOTION_DOT":1.62e-6,"MEAN_MOTION_DDOT":0},{"OBJECT_NAME":"ONEWEB-0512","OBJECT_ID":"2022-138T","EPOCH":"2026-02-14T06:11:03.334272","MEAN_MOTION":13.19726699,"ECCENTRICITY":0.00013755,"INCLINATION":87.9254,"RA_OF_ASC_NODE":329.4504,"ARG_OF_PERICENTER":79.0478,"MEAN_ANOMALY":281.0809,"EPHEMERIS_TYPE":0,"CLASSIFICATION_TYPE":"U","NORAD_CAT_ID":54130,"ELEMENT_SET_NO":999,"REV_AT_EPOCH":16059,"BSTAR":0.00012889449,"MEAN_MOTION_DOT":6.5e-7,"MEAN_MOTION_DDOT":0},{"OBJECT_NAME":"ONEWEB-0513","OBJECT_ID":"2022-138U","EPOCH":"2026-02-14T05:42:16.720992","MEAN_MOTION":13.20261163,"ECCENTRICITY":9.731e-5,"INCLINATION":87.9263,"RA_OF_ASC_NODE":329.4116,"ARG_OF_PERICENTER":58.1907,"MEAN_ANOMALY":301.932,"EPHEMERIS_TYPE":0,"CLASSIFICATION_TYPE":"U","NORAD_CAT_ID":54131,"ELEMENT_SET_NO":999,"REV_AT_EPOCH":16049,"BSTAR":8.5501864e-5,"MEAN_MOTION_DOT":4.7e-7,"MEAN_MOTION_DDOT":0},{"OBJECT_NAME":"ONEWEB-0514","OBJECT_ID":"2022-138V","EPOCH":"2026-02-14T06:33:47.525472","MEAN_MOTION":13.19724838,"ECCENTRICITY":0.00019029,"INCLINATION":87.9254,"RA_OF_ASC_NODE":329.4358,"ARG_OF_PERICENTER":74.7207,"MEAN_ANOMALY":285.4136,"EPHEMERIS_TYPE":0,"CLASSIFICATION_TYPE":"U","NORAD_CAT_ID":54132,"ELEMENT_SET_NO":999,"REV_AT_EPOCH":16061,"BSTAR":0.00018329699,"MEAN_MOTION_DOT":8.6e-7,"MEAN_MOTION_DDOT":0},{"OBJECT_NAME":"ONEWEB-0515","OBJECT_ID":"2022-138W","EPOCH":"2026-02-14T05:47:32.398944","MEAN_MOTION":13.20771324,"ECCENTRICITY":0.00024776,"INCLINATION":87.9211,"RA_OF_ASC_NODE":298.9651,"ARG_OF_PERICENTER":91.2331,"MEAN_ANOMALY":268.9086,"EPHEMERIS_TYPE":0,"CLASSIFICATION_TYPE":"U","NORAD_CAT_ID":54133,"ELEMENT_SET_NO":999,"REV_AT_EPOCH":16307,"BSTAR":-2.477589e-6,"MEAN_MOTION_DOT":1.2e-7,"MEAN_MOTION_DDOT":0},{"OBJECT_NAME":"ONEWEB-0516","OBJECT_ID":"2022-138X","EPOCH":"2026-02-14T05:57:23.118336","MEAN_MOTION":13.19723712,"ECCENTRICITY":0.00017517,"INCLINATION":87.925,"RA_OF_ASC_NODE":329.4541,"ARG_OF_PERICENTER":81.8642,"MEAN_ANOMALY":278.269,"EPHEMERIS_TYPE":0,"CLASSIFICATION_TYPE":"U","NORAD_CAT_ID":54134,"ELEMENT_SET_NO":999,"REV_AT_EPOCH":16061,"BSTAR":6.4272402e-5,"MEAN_MOTION_DOT":3.9e-7,"MEAN_MOTION_DDOT":0},{"OBJECT_NAME":"ONEWEB-0517","OBJECT_ID":"2022-138Y","EPOCH":"2026-02-14T05:27:49.763520","MEAN_MOTION":13.19724463,"ECCENTRICITY":0.00017882,"INCLINATION":87.9254,"RA_OF_ASC_NODE":329.4459,"ARG_OF_PERICENTER":70.0047,"MEAN_ANOMALY":290.1279,"EPHEMERIS_TYPE":0,"CLASSIFICATION_TYPE":"U","NORAD_CAT_ID":54135,"ELEMENT_SET_NO":999,"REV_AT_EPOCH":16061,"BSTAR":0.00021643009,"MEAN_MOTION_DOT":1.0e-6,"MEAN_MOTION_DDOT":0}]
